[{"OBJECT_NAME":"STARLINK-31378","OBJECT_ID":"2024-027B","EPOCH":"2026-03-09T21:55:01.648128","MEAN_MOTION":15.30194819,"ECCENTRICITY":0.00014925,"INCLINATION":53.1626,"RA_OF_ASC_NODE":308.5056,"ARG_OF_PERICENTER":87.6866,"MEAN_ANOMALY":272.4306,"EPHEMERIS_TYPE":0,"CLASSIFICATION_TYPE":"U","NORAD_CAT_ID":58932,"ELEMENT_SET_NO":999,"REV_AT_EPOCH":11736,"BSTAR":0.00011737913,"MEAN_MOTION_DOT":3.118e-5,"MEAN_MOTION_DDOT":0},{"OBJECT_NAME":"ARIANE 40 R\/B","OBJECT_ID":"1999-064C","EPOCH":"2026-03-09T18:24:37.025280","MEAN_MOTION":15.31364882,"ECCENTRICITY":0.00050095,"INCLINATION":98.1631,"RA_OF_ASC_NODE":150.8872,"ARG_OF_PERICENTER":91.4057,"MEAN_ANOMALY":268.7755,"EPHEMERIS_TYPE":0,"CLASSIFICATION_TYPE":"U","NORAD_CAT_ID":25979,"ELEMENT_SET_NO":999,"REV_AT_EPOCH":42869,"BSTAR":0.00066758353,"MEAN_MOTION_DOT":0.00020173,"MEAN_MOTION_DDOT":0}]
